{
  "type": "FeatureCollection",
  "features": [
    {
      "type": "Feature",
      "properties": {
        "norad_id": 29828,
        "name": "FENGYUN 1C DEB",
        "group": "fengyun-1c-debris",
        "lat": -30.401032209250793,
        "lon": -160.68892288803556,
        "alt_km": 834.2598089946405,
        "timestamp": "2025-12-04T19:33:59.875420+00:00",
        "meta_object_name": "FENGYUN 1C DEB",
        "meta_object_id": "1999-025DW",
        "meta_epoch": "2025-12-04T01:50:09.312288",
        "meta_mean_motion": 14.08126977,
        "meta_eccentricity": 0.00611553,
        "meta_inclination": 98.7711,
        "meta_ra_of_asc_node": 23.7903,
        "meta_arg_of_pericenter": 180.2152,
        "meta_mean_anomaly": 247.1172,
        "meta_ephemeris_type": 0,
        "meta_classification_type": "U",
        "meta_norad_cat_id": 29828,
        "meta_element_set_no": 999,
        "meta_rev_at_epoch": 96615,
        "meta_bstar": 0.0014873448,
        "meta_mean_motion_dot": 2.536e-05,
        "meta_mean_motion_ddot": 0,
        "tle_line1": "1 29828U 99025DW  25338.07649667  .00002536  00000+0  14873-2 0  9990",
        "tle_line2": "2 29828  98.7711  23.7903 0061155 180.2152 247.1172 14.08126977966151"
      },
      "geometry": {
        "type": "Point",
        "coordinates": [
          -160.68892288803556,
          -30.401032209250793
        ]
      }
    },
    {
      "type": "Feature",
      "properties": {
        "norad_id": 29832,
        "name": "FENGYUN 1C DEB",
        "group": "fengyun-1c-debris",
        "lat": -56.37672448742272,
        "lon": 103.28181747772743,
        "alt_km": 575.5212796425703,
        "timestamp": "2025-12-04T19:33:59.875429+00:00",
        "meta_object_name": "FENGYUN 1C DEB",
        "meta_object_id": "1999-025EA",
        "meta_epoch": "2025-12-04T06:37:53.732640",
        "meta_mean_motion": 14.56534302,
        "meta_eccentricity": 0.01924897,
        "meta_inclination": 98.8194,
        "meta_ra_of_asc_node": 89.2099,
        "meta_arg_of_pericenter": 309.054,
        "meta_mean_anomaly": 49.3662,
        "meta_ephemeris_type": 0,
        "meta_classification_type": "U",
        "meta_norad_cat_id": 29832,
        "meta_element_set_no": 999,
        "meta_rev_at_epoch": 132,
        "meta_bstar": 0.00025833748,
        "meta_mean_motion_dot": 1.413e-05,
        "meta_mean_motion_ddot": 0,
        "tle_line1": "1 29832U 99025EA  25338.27631635  .00001413  00000+0  25834-3 0  9996",
        "tle_line2": "2 29832  98.8194  89.2099 0192489 309.0540  49.3662 14.56534302  1325"
      },
      "geometry": {
        "type": "Point",
        "coordinates": [
          103.28181747772743,
          -56.37672448742272
        ]
      }
    },
    {
      "type": "Feature",
      "properties": {
        "norad_id": 29833,
        "name": "FENGYUN 1C DEB",
        "group": "fengyun-1c-debris",
        "lat": 48.86037645926499,
        "lon": -50.58679862931458,
        "alt_km": 628.1461541530061,
        "timestamp": "2025-12-04T19:33:59.875438+00:00",
        "meta_object_name": "FENGYUN 1C DEB",
        "meta_object_id": "1999-025EB",
        "meta_epoch": "2025-12-03T22:24:08.154144",
        "meta_mean_motion": 14.90728398,
        "meta_eccentricity": 0.00897415,
        "meta_inclination": 99.0751,
        "meta_ra_of_asc_node": 318.9434,
        "meta_arg_of_pericenter": 285.8499,
        "meta_mean_anomaly": 73.2837,
        "meta_ephemeris_type": 0,
        "meta_classification_type": "U",
        "meta_norad_cat_id": 29833,
        "meta_element_set_no": 999,
        "meta_rev_at_epoch": 440,
        "meta_bstar": 0.0026072601,
        "meta_mean_motion_dot": 0.00027662,
        "meta_mean_motion_ddot": 0,
        "tle_line1": "1 29833U 99025EB  25337.93342771  .00027662  00000+0  26073-2 0  9998",
        "tle_line2": "2 29833  99.0751 318.9434 0089741 285.8499  73.2837 14.90728398  4403"
      },
      "geometry": {
        "type": "Point",
        "coordinates": [
          -50.58679862931458,
          48.86037645926499
        ]
      }
    },
    {
      "type": "Feature",
      "properties": {
        "norad_id": 29835,
        "name": "FENGYUN 1C DEB",
        "group": "fengyun-1c-debris",
        "lat": 26.578645781427095,
        "lon": -68.70855676224208,
        "alt_km": 749.2565557144217,
        "timestamp": "2025-12-04T19:33:59.875447+00:00",
        "meta_object_name": "FENGYUN 1C DEB",
        "meta_object_id": "1999-025ED",
        "meta_epoch": "2025-12-04T07:29:35.465856",
        "meta_mean_motion": 14.43367973,
        "meta_eccentricity": 0.01682199,
        "meta_inclination": 99.0253,
        "meta_ra_of_asc_node": 106.1976,
        "meta_arg_of_pericenter": 62.1046,
        "meta_mean_anomaly": 356.4559,
        "meta_ephemeris_type": 0,
        "meta_classification_type": "U",
        "meta_norad_cat_id": 29835,
        "meta_element_set_no": 999,
        "meta_rev_at_epoch": 99373,
        "meta_bstar": 0.00013476958,
        "meta_mean_motion_dot": 4.83e-06,
        "meta_mean_motion_ddot": 0,
        "tle_line1": "1 29835U 99025ED  25338.31221604  .00000483  00000+0  13477-3 0  9991",
        "tle_line2": "2 29835  99.0253 106.1976 0168219  62.1046 356.4559 14.43367973993738"
      },
      "geometry": {
        "type": "Point",
        "coordinates": [
          -68.70855676224208,
          26.578645781427095
        ]
      }
    },
    {
      "type": "Feature",
      "properties": {
        "norad_id": 29836,
        "name": "FENGYUN 1C DEB",
        "group": "fengyun-1c-debris",
        "lat": 80.33039726555137,
        "lon": -47.387207769960234,
        "alt_km": 777.0976770181505,
        "timestamp": "2025-12-04T19:33:59.875456+00:00",
        "meta_object_name": "FENGYUN 1C DEB",
        "meta_object_id": "1999-025EE",
        "meta_epoch": "2025-12-04T06:10:04.369728",
        "meta_mean_motion": 14.54015344,
        "meta_eccentricity": 0.01542684,
        "meta_inclination": 98.1893,
        "meta_ra_of_asc_node": 74.3762,
        "meta_arg_of_pericenter": 228.6652,
        "meta_mean_anomaly": 187.2228,
        "meta_ephemeris_type": 0,
        "meta_classification_type": "U",
        "meta_norad_cat_id": 29836,
        "meta_element_set_no": 999,
        "meta_rev_at_epoch": 63432,
        "meta_bstar": 0.0014393396,
        "meta_mean_motion_dot": 7.064e-05,
        "meta_mean_motion_ddot": 0,
        "tle_line1": "1 29836U 99025EE  25338.25699502  .00007064  00000+0  14393-2 0  9990",
        "tle_line2": "2 29836  98.1893  74.3762 0154268 228.6652 187.2228 14.54015344634323"
      },
      "geometry": {
        "type": "Point",
        "coordinates": [
          -47.387207769960234,
          80.33039726555137
        ]
      }
    },
    {
      "type": "Feature",
      "properties": {
        "norad_id": 29841,
        "name": "FENGYUN 1C DEB",
        "group": "fengyun-1c-debris",
        "lat": -32.98823757488432,
        "lon": -68.5790408630975,
        "alt_km": 619.7522660059167,
        "timestamp": "2025-12-04T19:33:59.875465+00:00",
        "meta_object_name": "FENGYUN 1C DEB",
        "meta_object_id": "1999-025EK",
        "meta_epoch": "2025-12-04T07:11:15.610272",
        "meta_mean_motion": 14.46404723,
        "meta_eccentricity": 0.02012025,
        "meta_inclination": 98.8171,
        "meta_ra_of_asc_node": 285.1017,
        "meta_arg_of_pericenter": 359.0056,
        "meta_mean_anomaly": 164.6237,
        "meta_ephemeris_type": 0,
        "meta_classification_type": "U",
        "meta_norad_cat_id": 29841,
        "meta_element_set_no": 999,
        "meta_rev_at_epoch": 99201,
        "meta_bstar": 0.0013242096,
        "meta_mean_motion_dot": 6.068e-05,
        "meta_mean_motion_ddot": 0,
        "tle_line1": "1 29841U 99025EK  25338.29948623  .00006068  00000+0  13242-2 0  9996",
        "tle_line2": "2 29841  98.8171 285.1017 0201202 359.0056 164.6237 14.46404723992014"
      },
      "geometry": {
        "type": "Point",
        "coordinates": [
          -68.5790408630975,
          -32.98823757488432
        ]
      }
    },
    {
      "type": "Feature",
      "properties": {
        "norad_id": 29842,
        "name": "FENGYUN 1C DEB",
        "group": "fengyun-1c-debris",
        "lat": -13.933680487781615,
        "lon": 68.22795458610553,
        "alt_km": 768.1882797892222,
        "timestamp": "2025-12-04T19:33:59.875474+00:00",
        "meta_object_name": "FENGYUN 1C DEB",
        "meta_object_id": "1999-025EL",
        "meta_epoch": "2025-12-04T04:57:46.752768",
        "meta_mean_motion": 14.60045217,
        "meta_eccentricity": 0.01092589,
        "meta_inclination": 98.5702,
        "meta_ra_of_asc_node": 65.4549,
        "meta_arg_of_pericenter": 191.5275,
        "meta_mean_anomaly": 197.546,
        "meta_ephemeris_type": 0,
        "meta_classification_type": "U",
        "meta_norad_cat_id": 29842,
        "meta_element_set_no": 999,
        "meta_rev_at_epoch": 99229,
        "meta_bstar": 0.0037406701,
        "meta_mean_motion_dot": 0.00019534,
        "meta_mean_motion_ddot": 0,
        "tle_line1": "1 29842U 99025EL  25338.20679112  .00019534  00000+0  37407-2 0  9993",
        "tle_line2": "2 29842  98.5702  65.4549 0109258 191.5275 197.5460 14.60045217992299"
      },
      "geometry": {
        "type": "Point",
        "coordinates": [
          68.22795458610553,
          -13.933680487781615
        ]
      }
    }
  ]
}